#dP2020  5  7  0  0  0.00000000      97 __u+U IGS14 FIT  IAC
## 2104 345600.00000000   900.00000000 58976 0.0000000000000
+  124   C01C02C03C04C05C06C07C08C09C10C11C12C13C14C16C19C20
+        C21C22C23C24C25C26C27C28C29C30C32C33C34C35C36C37C38
+        C39C40C43C44C45C46C60E01E02E03E04E05E07E08E09E11E12
+        E13E14E15E18E19E21E24E25E26E27E30E31E33E36G01G02G03
+        G04G05G06G07G08G09G10G11G12G13G14G15G16G17G18G19G20
+        G21G22G23G24G25G26G27G28G29G30G31G32J01J02J03J07R01
+        R02R03R04R05R07R08R09R11R12R13R14R15R16R17R18R19R20
+        R21R22R23R24R26  0  0  0  0  0  0  0  0  0  0  0  0
++         0  0  0  0  0  0  0  0  0  0  0  0  0  0  0  0  0
++         0  0  0  0  0  0  0  0  0  0  0  0  0  0  0  0  0
++         0  0  0  0  0  0  0  0  0  0  0  0  0  0  0  0  0
++         0  0  0  0  0  0  0  0  0  0  0  0  0  0  0  0  0
++         0  0  0  0  0  0  0  0  0  0  0  0  0  0  0  0  0
++         0  0  0  0  0  0  0  0  0  0  0  0  0  0  0  0  0
++         0  0  0  0  0  0  0  0  0  0  0  0  0  0  0  0  0
++         0  0  0  0  0  0  0  0  0  0  0  0  0  0  0  0  0
%c M  cc GPS ccc cccc cccc cccc cccc ccccc ccccc ccccc ccccc
%c cc cc ccc ccc cccc cccc cccc cccc ccccc ccccc ccccc ccccc
%f  1.2500000  1.025000000  0.00000000000  0.000000000000000
%f  0.0000000  0.000000000  0.00000000000  0.000000000000000
%i    0    0    0    0      0      0      0      0         0
%i    0    0    0    0      0      0      0      0         0
/* INFORMATION & ANALYSIS CENTER (IAC)            FINAL DATA
/* S/V CLOCKS ARE ALIGNED TO GNSS TIME                      
/* G:C1WC2W R:C1PC2P E:C1XC5X C:C2IC6I J:C1CC2S             
/* PCV:IGS14_2101 OL/AL:FES2004  NONE     YN ORB:CoN CLK:CoN
*  2020 05 07 18 30  0.00000000
PC01 -34393.170272  24383.722093   -109.663322   -535.644335
PC02   4429.292466  41929.667760    789.310697    366.080381
PC03 -14763.761203  39538.924425   -210.619674    628.400022
PC04 -39628.111769  14421.816028   -547.579351   -228.416792
PC05  21944.143052  36023.548289    693.228700   -242.984789
PC06  -9395.088828  23995.197641  33828.937362    728.745511
PC07 -25305.714574  28154.517424 -18876.777179    -14.543420
PC08 -13570.235727  37443.849029 -13247.789550   -240.206008
PC09   6521.134824  32087.153740  27042.990443    524.495598
PC10 -10097.459858  29536.989501 -28350.288134   -932.599004
PC11  15502.398190  -3968.800127  22910.652538   -350.212530
PC12  20281.644463  14428.111719  12628.146470    367.197351
PC13  -4748.105125  41747.923326   1080.212054    423.159670
PC14  26087.602363  -7276.983200  -6561.253753    380.178525
PC16  -5459.865341  25516.307387  33229.873459   -652.459547
PC19 -20272.389348  12383.025253  14691.632414    405.345947
PC20 -27821.429550   1729.903256  -1631.607152   -883.816962
PC21  18972.829538  10422.535091  17622.024690   -373.098163
PC22   -845.455867  16066.503226  22814.360670   -813.117834
PC23   4605.649466 -25828.859403   9505.052896   -883.905007
PC24  18170.808971  -3964.298844 -20818.553806   -830.191392
PC25  15493.278445 -21908.296335  -7700.878158   -608.981442
PC26  10311.366331  14480.883283 -21509.079036    671.944769
PC27 -17831.488319 -21076.494973  -4004.417918    325.983303
PC28  -5394.425608 -23979.780452  13217.967999    317.060425
PC29  -9652.350514  13231.204346 -22603.081994    225.291343
PC30 -20073.096710  -5405.351873 -18609.332342    313.413234
PC32 -19119.226728 -10238.547023 -17546.137522   -898.583503
PC33  20247.538932 -12447.817848 -14592.873494   -844.361386
PC34  19981.302824   5039.770768  18822.780524   -698.576403
PC35   6054.700632  23782.578804 -13322.104363   -855.850912
PC36 -16099.543561  21380.634963   7936.764079   -827.522895
PC37  -9520.665229 -15341.140634  21297.451350   -842.518248
PC38 -10971.308654  39894.483758  -7870.274555     76.562691
PC39  -1120.346663  26960.030340  32445.835557     15.368470
PC40 -16870.535298  25062.884124 -29483.140439 999999.999999
PC43  10051.799819 -12972.100707  22562.052827   -183.434015
PC44  18446.883114  20621.067741   3783.965335   -209.822304
PC45  -4584.651210  25824.780003  -9504.728386    126.356485
PC46 -18135.958793   4528.432150  20718.695929    847.210849
PC60   7286.212279  41484.819268  -2168.772581 999999.999999
PE01 -24857.887605  10655.186611  12025.596871   -851.664816
PE02  24871.347620 -10726.029761 -11959.085265    131.712872
PE03  26850.993395    136.956397 -12434.396345   -296.133559
PE04 -12485.097194  13193.772684  23382.551008   -520.718907
PE05  25639.424882  13547.423119   5936.652297   -382.216452
PE07  -9483.011079 -18931.909483 -20676.169123   -378.599496
PE08  12123.633263 -13251.232011 -23517.810908   6181.600823
PE09   9706.226965  18758.050993  20742.185539   6068.741715
PE11   5766.756374  29045.836697    118.439113   2697.578706
PE12  -7475.065675  22521.169706 -17707.928142   5816.927498
PE13  -5725.159051 -29034.625667    131.045644    400.663340
PE14  -3453.829446 -18696.967339  15180.163146  -1005.418619
PE15   7220.415481 -22659.554832  17623.581719    867.872174
PE18  -4584.679937  21242.959595 -23476.014154  -1104.233140
PE19 -27536.088128  -1726.368850  10731.451405  -1740.039230
PE21 -16572.439202  -6553.554416  23628.688876   -597.640962
PE24  -1772.269284  20335.084028 -21443.572448   5467.927359
PE25  16480.005946   6665.687935 -23666.487952   -510.227806
PE26 -15422.671066 -18080.779046 -17640.789205   3216.087020
PE27   1522.240919 -20235.202867  21550.394239    224.977141
PE30  18957.186885 -21786.722556   6506.448091   3925.926686
PE31 -18636.174924  21962.789920  -6820.090216   -472.487616
PE33 -15922.364664   2993.423940 -24767.148395   -467.556763
PE36  15317.217563  18372.908383  17447.876512    563.195536
PG01  13651.518691 -12808.905400  18482.851472   -375.444370
PG02 -13393.467158 -11215.206732 -19388.446271   -452.068570
PG03  23106.638418 -12735.958656  -2564.637316   -168.413660
PG04  15195.606211  -6736.402345 -20710.703307    -86.266206
PG05 -21570.118437  -1606.821139 -15679.401812    -12.240205
PG06  -7732.071626 -21031.660298 -14166.348337   -267.261767
PG07   5529.002936 -25300.684103  -4263.184686   -275.813632
PG08  22240.308808   3153.486233  14386.767385    -33.192024
PG09   4315.982604 -15357.019095 -21283.466339   -212.785286
PG10   1816.933885  15588.148795  21484.647365   -333.830115
PG11  15913.819732  -2948.679449  20545.737006   -283.876034
PG12 -24191.596713  10626.862998  -1849.216681    120.608603
PG13 -22086.797766 -11694.069497   9008.729819      8.131809
PG14  17800.649245  19285.604431   5033.427511    -14.565579
PG15 -22522.727804   -459.182131  14046.245658   -232.807488
PG16  22368.092166   2400.490349 -14686.573845   -155.431258
PG17 -11000.956988 -20251.207382  13663.977375    260.999719
PG18  -6837.335531  24998.332913  -5779.909852    182.127797
PG19 -16932.260281 -19605.353670   5599.949583   -161.920862
PG20  -9181.657976  19421.160054  15399.653650    527.729549
PG21  -3305.098293  26083.233904  -3902.714920     -4.439235
PG22  24330.848366  -7958.410933   7023.740330   -783.015528
PG23   5396.665935 -14728.482540 -21035.279131   -116.083782
PG24 -14292.978889  11240.715952  19041.370196    -12.716237
PG25 -17887.515606  16442.162270 -10641.779619      2.247075
PG26  13785.312547   9653.054288 -20629.112313    202.004471
PG27  23266.086963  12138.735809   5005.603239   -287.447024
PG28  -2013.456091 -15227.378139  22265.250300    719.342392
PG29  -7926.595736  12442.172550 -22127.342617    -98.925427
PG30  -1563.009352 -25636.231922   6351.916063   -215.048388
PG31   8573.647709  19733.836590 -15304.279659    -40.880194
PG32  12938.884979  19654.878315  12541.162965    275.730749
PJ01 -29957.137643  24412.855996  21942.546458   -308.737639
PJ02 -33179.715364  25836.704013   7265.066401     -2.741893
PJ03 -22401.071960  19247.299710 -25515.345280     -2.726324
PJ07 -25395.696423  33667.995438     33.861541     -0.011432
PR01 -23845.219823  -5254.265363  -7402.450704     61.167605
PR02 -21234.269634   4411.609315  13428.289626    425.548446
PR03  -5319.978078  10408.254337  22713.663226     14.605601
PR04  13449.646216  10219.941297  19145.236051     48.293013
PR05  24679.866104   4456.464035   4730.685410     50.041410
PR07   4784.591417 -10456.111859 -22730.943319    -36.266909
PR08 -13458.773559 -10297.823354 -19001.239424    -52.081803
PR09  16465.239671 -18415.214284  -6206.454960    131.324119
PR11  -2601.087615 -14149.788602  21062.248414    -22.780237
PR12 -13252.217032    957.893419  21793.231444    128.843716
PR13 -16863.687109  16373.062153   9894.116674    -38.398961
PR14 -10680.173035  21813.699492  -7810.626248     50.961712
PR15   1700.567199  14729.012887 -20739.189048    106.434368
PR16  13690.090793  -1769.879219 -21502.864882     -3.360662
PR17   1309.310558  20009.009499 -15740.707558    322.996009
PR18  10648.668266  23214.554758    138.866475     34.562857
PR19  13851.187805  14656.713439  15620.320682    -92.235519
PR20   9243.057141  -4765.744252  23296.010555   -411.083282
PR21  -1917.139353 -20518.142994  15045.277371   -122.979713
PR22 -11493.490241 -22526.840921  -2772.539191     -0.125187
PR23 -13545.439986  -8256.170020 -19983.239833    304.012604
PR24  -9281.397997   5793.801433 -23027.715459     -2.571919
PR26  11154.744910   -280.278815  22944.916143   -396.613901
EOF
